GOES 17                 
1 43226U 18022A   21020.46707208  .00000105  00000-0  00000+0 0  9994
2 43226   0.0481 239.2283 0000675  97.3124 174.4142  1.00271106 10647